CTC2_L_00152001-01
1 10000U 26250PJ  26075.70042824  .00000000  00000+0  00000-0 0  9992
2 10000  40.0000   0.0000 0000000   0.0000   0.0000 14.98995063    12
CTC2_L_00152001-02
1 10001U 24062DG  26075.70042824  .00000000  00000+0  00000-0 0  9992
2 10001  40.0000   0.0000 0000000   0.0000  90.0000 14.98995063    12
CTC2_L_00152001-03
1 10002U 24581GX  26075.70042824  .00000000  00000+0  00000-0 0  9999
2 10002  40.0000   0.0000 0000000   0.0000 180.0000 14.98995063    13
CTC2_L_00152001-04
1 10003U 25886DQ  26075.70042824  .00000000  00000+0  00000-0 0  9999
2 10003  40.0000   0.0000 0000000   0.0000 270.0000 14.98995063    14
CTC2_L_00152002-01
1 10004U 24147GQ  26075.70042824  .00000000  00000+0  00000-0 0  9999
2 10004  40.0000  12.0000 0000000   0.0000  12.0000 14.98995063    12
CTC2_L_00152002-02
1 10005U 25314HI  26075.70042824  .00000000  00000+0  00000-0 0  9997
2 10005  40.0000  12.0000 0000000   0.0000 102.0000 14.98995063    13
CTC2_L_00152002-03
1 10006U 22879GF  26075.70042824  .00000000  00000+0  00000-0 0  9991
2 10006  40.0000  12.0000 0000000   0.0000 192.0000 14.98995063    13
CTC2_L_00152002-04
1 10007U 24225HY  26075.70042824  .00000000  00000+0  00000-0 0  9999
2 10007  40.0000  12.0000 0000000   0.0000 282.0000 14.98995063    14
CTC2_L_00152003-01
1 10008U 25882KX  26075.70042824  .00000000  00000+0  00000-0 0  9990
2 10008  40.0000  24.0000 0000000   0.0000  24.0000 14.98995063    12
CTC2_L_00152003-02
1 10009U 23237QN  26075.70042824  .00000000  00000+0  00000-0 0  9993
2 10009  40.0000  24.0000 0000000   0.0000 114.0000 14.98995063    13
CTC2_L_00152003-03
1 10010U 23088E   26075.70042824  .00000000  00000+0  00000-0 0  9999
2 10010  40.0000  24.0000 0000000   0.0000 204.0000 14.98995063    15
CTC2_L_00152003-04
1 10011U 24529BX  26075.70042824  .00000000  00000+0  00000-0 0  9991
2 10011  40.0000  24.0000 0000000   0.0000 294.0000 14.98995063    15
CTC2_L_00152004-01
1 10012U 23823SY  26075.70042824  .00000000  00000+0  00000-0 0  9998
2 10012  40.0000  36.0000 0000000   0.0000  36.0000 14.98995063    13
CTC2_L_00152004-02
1 10013U 25265UC  26075.70042824  .00000000  00000+0  00000-0 0  9991
2 10013  40.0000  36.0000 0000000   0.0000 126.0000 14.98995063    14
CTC2_L_00152004-03
1 10014U 23022WN  26075.70042824  .00000000  00000+0  00000-0 0  9991
2 10014  40.0000  36.0000 0000000   0.0000 216.0000 14.98995063    15
CTC2_L_00152004-04
1 10015U 23117SQ  26075.70042824  .00000000  00000+0  00000-0 0  9997
2 10015  40.0000  36.0000 0000000   0.0000 306.0000 14.98995063    16
CTC2_L_00152005-01
1 10016U 22400OL  26075.70042824  .00000000  00000+0  00000-0 0  9992
2 10016  40.0000  48.0000 0000000   0.0000  48.0000 14.98995063    13
CTC2_L_00152005-02
1 10017U 24501ME  26075.70042824  .00000000  00000+0  00000-0 0  9997
2 10017  40.0000  48.0000 0000000   0.0000 138.0000 14.98995063    14
CTC2_L_00152005-03
1 10018U 23460YI  26075.70042824  .00000000  00000+0  00000-0 0  9991
2 10018  40.0000  48.0000 0000000   0.0000 228.0000 14.98995063    15
CTC2_L_00152005-04
1 10019U 25156UF  26075.70042824  .00000000  00000+0  00000-0 0  9996
2 10019  40.0000  48.0000 0000000   0.0000 318.0000 14.98995063    16
CTC2_L_00152006-01
1 10020U 24271FX  26075.70042824  .00000000  00000+0  00000-0 0  9995
2 10020  40.0000  60.0000 0000000   0.0000  60.0000 14.98995063    16
CTC2_L_00152006-02
1 10021U 24886DJ  26075.70042824  .00000000  00000+0  00000-0 0  9998
2 10021  40.0000  60.0000 0000000   0.0000 150.0000 14.98995063    17
CTC2_L_00152006-03
1 10022U 22305Q   26075.70042824  .00000000  00000+0  00000-0 0  9993
2 10022  40.0000  60.0000 0000000   0.0000 240.0000 14.98995063    18
CTC2_L_00152006-04
1 10023U 26520CH  26075.70042824  .00000000  00000+0  00000-0 0  9997
2 10023  40.0000  60.0000 0000000   0.0000 330.0000 14.98995063    19
CTC2_L_00152007-01
1 10024U 22287BD  26075.70042824  .00000000  00000+0  00000-0 0  9994
2 10024  40.0000  72.0000 0000000   0.0000  72.0000 14.98995063    16
CTC2_L_00152007-02
1 10025U 23716OJ  26075.70042824  .00000000  00000+0  00000-0 0  9993
2 10025  40.0000  72.0000 0000000   0.0000 162.0000 14.98995063    17
CTC2_L_00152007-03
1 10026U 25307KP  26075.70042824  .00000000  00000+0  00000-0 0  9992
2 10026  40.0000  72.0000 0000000   0.0000 252.0000 14.98995063    18
CTC2_L_00152007-04
1 10027U 23890IH  26075.70042824  .00000000  00000+0  00000-0 0  9998
2 10027  40.0000  72.0000 0000000   0.0000 342.0000 14.98995063    19
CTC2_L_00152008-01
1 10028U 26229DG  26075.70042824  .00000000  00000+0  00000-0 0  9998
2 10028  40.0000  84.0000 0000000   0.0000  84.0000 14.98995063    16
CTC2_L_00152008-02
1 10029U 25030RX  26075.70042824  .00000000  00000+0  00000-0 0  9998
2 10029  40.0000  84.0000 0000000   0.0000 174.0000 14.98995063    17
CTC2_L_00152008-03
1 10030U 24271YR  26075.70042824  .00000000  00000+0  00000-0 0  9996
2 10030  40.0000  84.0000 0000000   0.0000 264.0000 14.98995063    19
CTC2_L_00152008-04
1 10031U 22088PV  26075.70042824  .00000000  00000+0  00000-0 0  9991
2 10031  40.0000  84.0000 0000000   0.0000 354.0000 14.98995063    10
CTC2_L_00152009-01
1 10032U 23737XJ  26075.70042824  .00000000  00000+0  00000-0 0  9994
2 10032  40.0000  96.0000 0000000   0.0000  96.0000 14.98995063    17
CTC2_L_00152009-02
1 10033U 23589CE  26075.70042824  .00000000  00000+0  00000-0 0  9990
2 10033  40.0000  96.0000 0000000   0.0000 186.0000 14.98995063    18
CTC2_L_00152009-03
1 10034U 26475DV  26075.70042824  .00000000  00000+0  00000-0 0  9998
2 10034  40.0000  96.0000 0000000   0.0000 276.0000 14.98995063    19
CTC2_L_00152009-04
1 10035U 22876PC  26075.70042824  .00000000  00000+0  00000-0 0  9990
2 10035  40.0000  96.0000 0000000   0.0000   6.0000 14.98995063    11
CTC2_L_00152010-01
1 10036U 23573AJ  26075.70042824  .00000000  00000+0  00000-0 0  9996
2 10036  40.0000 108.0000 0000000   0.0000 108.0000 14.98995063    19
CTC2_L_00152010-02
1 10037U 23249OE  26075.70042824  .00000000  00000+0  00000-0 0  9997
2 10037  40.0000 108.0000 0000000   0.0000 198.0000 14.98995063    19
CTC2_L_00152010-03
1 10038U 24542HS  26075.70042824  .00000000  00000+0  00000-0 0  9995
2 10038  40.0000 108.0000 0000000   0.0000 288.0000 14.98995063    10
CTC2_L_00152010-04
1 10039U 26267IT  26075.70042824  .00000000  00000+0  00000-0 0  9992
2 10039  40.0000 108.0000 0000000   0.0000  18.0000 14.98995063    12
CTC2_L_00152011-01
1 10040U 22334GY  26075.70042824  .00000000  00000+0  00000-0 0  9995
2 10040  40.0000 120.0000 0000000   0.0000 120.0000 14.98995063    12
CTC2_L_00152011-02
1 10041U 26836VU  26075.70042824  .00000000  00000+0  00000-0 0  9997
2 10041  40.0000 120.0000 0000000   0.0000 210.0000 14.98995063    13
CTC2_L_00152011-03
1 10042U 22880GC  26075.70042824  .00000000  00000+0  00000-0 0  9993
2 10042  40.0000 120.0000 0000000   0.0000 300.0000 14.98995063    14
CTC2_L_00152011-04
1 10043U 23496LT  26075.70042824  .00000000  00000+0  00000-0 0  9998
2 10043  40.0000 120.0000 0000000   0.0000  30.0000 14.98995063    15
CTC2_L_00152012-01
1 10044U 24718ST  26075.70042824  .00000000  00000+0  00000-0 0  9997
2 10044  40.0000 132.0000 0000000   0.0000 132.0000 14.98995063    12
CTC2_L_00152012-02
1 10045U 26104OP  26075.70042824  .00000000  00000+0  00000-0 0  9999
2 10045  40.0000 132.0000 0000000   0.0000 222.0000 14.98995063    13
CTC2_L_00152012-03
1 10046U 24457DQ  26075.70042824  .00000000  00000+0  00000-0 0  9999
2 10046  40.0000 132.0000 0000000   0.0000 312.0000 14.98995063    14
CTC2_L_00152012-04
1 10047U 25725HI  26075.70042824  .00000000  00000+0  00000-0 0  9999
2 10047  40.0000 132.0000 0000000   0.0000  42.0000 14.98995063    15
CTC2_L_00152013-01
1 10048U 25518MB  26075.70042824  .00000000  00000+0  00000-0 0  9990
2 10048  40.0000 144.0000 0000000   0.0000 144.0000 14.98995063    12
CTC2_L_00152013-02
1 10049U 23404YE  26075.70042824  .00000000  00000+0  00000-0 0  9993
2 10049  40.0000 144.0000 0000000   0.0000 234.0000 14.98995063    13
CTC2_L_00152013-03
1 10050U 25256YS  26075.70042824  .00000000  00000+0  00000-0 0  9992
2 10050  40.0000 144.0000 0000000   0.0000 324.0000 14.98995063    15
CTC2_L_00152013-04
1 10051U 26525GW  26075.70042824  .00000000  00000+0  00000-0 0  9993
2 10051  40.0000 144.0000 0000000   0.0000  54.0000 14.98995063    16
CTC2_L_00152014-01
1 10052U 25342WE  26075.70042824  .00000000  00000+0  00000-0 0  9990
2 10052  40.0000 156.0000 0000000   0.0000 156.0000 14.98995063    13
CTC2_L_00152014-02
1 10053U 22659UE  26075.70042824  .00000000  00000+0  00000-0 0  9999
2 10053  40.0000 156.0000 0000000   0.0000 246.0000 14.98995063    14
CTC2_L_00152014-03
1 10054U 23294XB  26075.70042824  .00000000  00000+0  00000-0 0  9996
2 10054  40.0000 156.0000 0000000   0.0000 336.0000 14.98995063    15
CTC2_L_00152014-04
1 10055U 24952VR  26075.70042824  .00000000  00000+0  00000-0 0  9999
2 10055  40.0000 156.0000 0000000   0.0000  66.0000 14.98995063    16
CTC2_L_00152015-01
1 10056U 24751RV  26075.70042824  .00000000  00000+0  00000-0 0  9997
2 10056  40.0000 168.0000 0000000   0.0000 168.0000 14.98995063    13
CTC2_L_00152015-02
1 10057U 24880JD  26075.70042824  .00000000  00000+0  00000-0 0  9991
2 10057  40.0000 168.0000 0000000   0.0000 258.0000 14.98995063    14
CTC2_L_00152015-03
1 10058U 23756VU  26075.70042824  .00000000  00000+0  00000-0 0  9993
2 10058  40.0000 168.0000 0000000   0.0000 348.0000 14.98995063    15
CTC2_L_00152015-04
1 10059U 23710OQ  26075.70042824  .00000000  00000+0  00000-0 0  9994
2 10059  40.0000 168.0000 0000000   0.0000  78.0000 14.98995063    16
CTC2_L_00152016-01
1 10060U 25034QX  26075.70042824  .00000000  00000+0  00000-0 0  9997
2 10060  40.0000 180.0000 0000000   0.0000 180.0000 14.98995063    16
CTC2_L_00152016-02
1 10061U 26582SO  26075.70042824  .00000000  00000+0  00000-0 0  9997
2 10061  40.0000 180.0000 0000000   0.0000 270.0000 14.98995063    17
